{"type": "FeatureCollection", "features": [ {"type": "Feature", "properties": {"norad_id": 31841, "name": "FENGYUN 1C DEB", "group": "fengyun-1c-debris", "lat": -10.391351322136282, "lon": 155.2270901272609, "alt_km": 707.8236924464873, "timestamp": "2025-12-10T18:57:00.349955+00:00", "meta": {"OBJECT_NAME": "FENGYUN 1C DEB", "OBJECT_ID": "1999-025CJF", "EPOCH": "2025-12-09T06:12:44.774784", "MEAN_MOTION": 14.03533428, "ECCENTRICITY": 0.0308721, "INCLINATION": 98.4185, "RA_OF_ASC_NODE": 152.251, "ARG_OF_PERICENTER": 315.3739, "MEAN_ANOMALY": 221.9811, "EPHEMERIS_TYPE": 0, "CLASSIFICATION_TYPE": "U", "NORAD_CAT_ID": 31841, "ELEMENT_SET_NO": 999, "REV_AT_EPOCH": 59290, "BSTAR": 0.0023276, "MEAN_MOTION_DOT": 5.531e-05, "MEAN_MOTION_DDOT": 0}, "tle": {"line1": "1 31841U 99025CJF 25343.25885156  .00005531  00000+0  23276-2 0  9994", "line2": "2 31841  98.4185 152.2510 0308721 315.3739 221.9811 14.03533428592904"}}, "geometry": {"type": "Point", "coordinates": [155.2270901272609, -10.391351322136282]}}, {"type": "Feature", "properties": {"norad_id": 31843, "name": "FENGYUN 1C DEB", "group": "fengyun-1c-debris", "lat": -67.59035589278781, "lon": -50.981149433719054, "alt_km": 936.1715723013613, "timestamp": "2025-12-10T18:57:00.349965+00:00", "meta": {"OBJECT_NAME": "FENGYUN 1C DEB", "OBJECT_ID": "1999-025CJH", "EPOCH": "2025-12-10T01:15:41.464800", "MEAN_MOTION": 13.33750732, "ECCENTRICITY": 0.0640835, "INCLINATION": 99.2824, "RA_OF_ASC_NODE": 284.9811, "ARG_OF_PERICENTER": 0.6997, "MEAN_ANOMALY": 359.489, "EPHEMERIS_TYPE": 0, "CLASSIFICATION_TYPE": "U", "NORAD_CAT_ID": 31843, "ELEMENT_SET_NO": 999, "REV_AT_EPOCH": 64660, "BSTAR": 0.011570055, "MEAN_MOTION_DOT": 0.00018562, "MEAN_MOTION_DDOT": 0}, "tle": {"line1": "1 31843U 99025CJH 25344.05256325  .00018562  00000+0  11570-1 0  9996", "line2": "2 31843  99.2824 284.9811 0640835   0.6997 359.4890 13.33750732646609"}}, "geometry": {"type": "Point", "coordinates": [-50.981149433719054, -67.59035589278781]}}, {"type": "Feature", "properties": {"norad_id": 31844, "name": "FENGYUN 1C DEB", "group": "fengyun-1c-debris", "lat": 22.87969110926046, "lon": 157.53735398699928, "alt_km": 895.9392638128729, "timestamp": "2025-12-10T18:57:00.349975+00:00", "meta": {"OBJECT_NAME": "FENGYUN 1C DEB", "OBJECT_ID": "1999-025CJJ", "EPOCH": "2025-12-09T05:00:24.037056", "MEAN_MOTION": 14.19725395, "ECCENTRICITY": 0.010355, "INCLINATION": 100.2998, "RA_OF_ASC_NODE": 331.2997, "ARG_OF_PERICENTER": 0.53, "MEAN_ANOMALY": 359.5963, "EPHEMERIS_TYPE": 0, "CLASSIFICATION_TYPE": "U", "NORAD_CAT_ID": 31844, "ELEMENT_SET_NO": 999, "REV_AT_EPOCH": 95282, "BSTAR": 0.0014495, "MEAN_MOTION_DOT": 3.18e-05, "MEAN_MOTION_DDOT": 0}, "tle": {"line1": "1 31844U 99025CJJ 25343.20861154  .00003180  00000+0  14495-2 0  9995", "line2": "2 31844 100.2998 331.2997 0103550   0.5300 359.5963 14.19725395952829"}}, "geometry": {"type": "Point", "coordinates": [157.53735398699928, 22.87969110926046]}}, {"type": "Feature", "properties": {"norad_id": 31850, "name": "FENGYUN 1C DEB", "group": "fengyun-1c-debris", "lat": -61.08866386385918, "lon": 44.90366954860709, "alt_km": 525.0355201228485, "timestamp": "2025-12-10T18:57:00.349985+00:00", "meta": {"OBJECT_NAME": "FENGYUN 1C DEB", "OBJECT_ID": "1999-025CJQ", "EPOCH": "2025-12-10T01:59:03.728256", "MEAN_MOTION": 15.32234847, "ECCENTRICITY": 0.00776699, "INCLINATION": 98.5742, "RA_OF_ASC_NODE": 28.2313, "ARG_OF_PERICENTER": 98.5188, "MEAN_ANOMALY": 262.4862, "EPHEMERIS_TYPE": 0, "CLASSIFICATION_TYPE": "U", "NORAD_CAT_ID": 31850, "ELEMENT_SET_NO": 999, "REV_AT_EPOCH": 65788, "BSTAR": 0.0035980456, "MEAN_MOTION_DOT": 0.00124808, "MEAN_MOTION_DDOT": 0}, "tle": {"line1": "1 31850U 99025CJQ 25344.08268204  .00124808  00000+0  35980-2 0  9999", "line2": "2 31850  98.5742  28.2313 0077669  98.5188 262.4862 15.32234847657880"}}, "geometry": {"type": "Point", "coordinates": [44.90366954860709, -61.08866386385918]}}, {"type": "Feature", "properties": {"norad_id": 31854, "name": "FENGYUN 1C DEB", "group": "fengyun-1c-debris", "lat": -43.117505796590734, "lon": 159.659739908132, "alt_km": 877.7976569313614, "timestamp": "2025-12-10T18:57:00.349996+00:00", "meta": {"OBJECT_NAME": "FENGYUN 1C DEB", "OBJECT_ID": "1999-025CJU", "EPOCH": "2025-12-09T17:55:56.527392", "MEAN_MOTION": 14.03067667, "ECCENTRICITY": 0.00722219, "INCLINATION": 98.8471, "RA_OF_ASC_NODE": 347.0322, "ARG_OF_PERICENTER": 149.3784, "MEAN_ANOMALY": 211.1628, "EPHEMERIS_TYPE": 0, "CLASSIFICATION_TYPE": "U", "NORAD_CAT_ID": 31854, "ELEMENT_SET_NO": 999, "REV_AT_EPOCH": 69230, "BSTAR": 0.00055835409, "MEAN_MOTION_DOT": 8.46e-06, "MEAN_MOTION_DDOT": 0}, "tle": {"line1": "1 31854U 99025CJU 25343.74718203  .00000846  00000+0  55835-3 0  9991", "line2": "2 31854  98.8471 347.0322 0072221 149.3784 211.1628 14.03067667692302"}}, "geometry": {"type": "Point", "coordinates": [159.659739908132, -43.117505796590734]}}, {"type": "Feature", "properties": {"norad_id": 31857, "name": "FENGYUN 1C DEB", "group": "fengyun-1c-debris", "lat": -82.00522209980474, "lon": 65.65768318488169, "alt_km": 812.2206904335344, "timestamp": "2025-12-10T18:57:00.350006+00:00", "meta": {"OBJECT_NAME": "FENGYUN 1C DEB", "OBJECT_ID": "1999-025CJX", "EPOCH": "2025-12-08T09:09:37.694592", "MEAN_MOTION": 13.61900061, "ECCENTRICITY": 0.0309157, "INCLINATION": 96.1892, "RA_OF_ASC_NODE": 13.5368, "ARG_OF_PERICENTER": 294.2443, "MEAN_ANOMALY": 62.6695, "EPHEMERIS_TYPE": 0, "CLASSIFICATION_TYPE": "U", "NORAD_CAT_ID": 31857, "ELEMENT_SET_NO": 999, "REV_AT_EPOCH": 61570, "BSTAR": 0.0028041545, "MEAN_MOTION_DOT": 2.946e-05, "MEAN_MOTION_DDOT": 0}, "tle": {"line1": "1 31857U 99025CJX 25342.38168628  .00002946  00000+0  28042-2 0  9995", "line2": "2 31857  96.1892  13.5368 0309157 294.2443  62.6695 13.61900061615700"}}, "geometry": {"type": "Point", "coordinates": [65.65768318488169, -82.00522209980474]}}, {"type": "Feature", "properties": {"norad_id": 31861, "name": "FENGYUN 1C DEB", "group": "fengyun-1c-debris", "lat": 75.9338310682745, "lon": 57.930248811981464, "alt_km": 1265.2275011988413, "timestamp": "2025-12-10T18:57:00.350016+00:00", "meta": {"OBJECT_NAME": "FENGYUN 1C DEB", "OBJECT_ID": "1999-025CKB", "EPOCH": "2025-11-30T18:20:57.621120", "MEAN_MOTION": 13.30200627, "ECCENTRICITY": 0.04966148, "INCLINATION": 102.3423, "RA_OF_ASC_NODE": 165.0071, "ARG_OF_PERICENTER": 230.9853, "MEAN_ANOMALY": 124.6046, "EPHEMERIS_TYPE": 0, "CLASSIFICATION_TYPE": "U", "NORAD_CAT_ID": 31861, "ELEMENT_SET_NO": 999, "REV_AT_EPOCH": 66608, "BSTAR": 0.0034105388, "MEAN_MOTION_DOT": 3.105e-05, "MEAN_MOTION_DDOT": 0}, "tle": {"line1": "1 31861U 99025CKB 25334.76455580  .00003105  00000+0  34105-2 0  9994", "line2": "2 31861 102.3423 165.0071 0496614 230.9853 124.6046 13.30200627666089"}}, "geometry": {"type": "Point", "coordinates": [57.930248811981464, 75.9338310682745]}}, {"type": "Feature", "properties": {"norad_id": 31877, "name": "FENGYUN 1C DEB", "group": "fengyun-1c-debris", "lat": 17.826337686900846, "lon": -122.37831030267337, "alt_km": 602.4128673624136, "timestamp": "2025-12-10T18:57:00.350026+00:00", "meta": {"OBJECT_NAME": "FENGYUN 1C DEB", "OBJECT_ID": "1999-025CKC", "EPOCH": "2025-12-10T03:49:37.380288", "MEAN_MOTION": 15.01407414, "ECCENTRICITY": 0.01044995, "INCLINATION": 99.0012, "RA_OF_ASC_NODE": 53.9701, "ARG_OF_PERICENTER": 287.3757, "MEAN_ANOMALY": 71.6056, "EPHEMERIS_TYPE": 0, "CLASSIFICATION_TYPE": "U", "NORAD_CAT_ID": 31877, "ELEMENT_SET_NO": 999, "REV_AT_EPOCH": 99003, "BSTAR": 0.001174344, "MEAN_MOTION_DOT": 0.00016981, "MEAN_MOTION_DDOT": 0}, "tle": {"line1": "1 31877U 99025CKC 25344.15946042  .00016981  00000+0  11743-2 0  9992", "line2": "2 31877  99.0012  53.9701 0104499 287.3757  71.6056 15.01407414990033"}}, "geometry": {"type": "Point", "coordinates": [-122.37831030267337, 17.826337686900846]}}, {"type": "Feature", "properties": {"norad_id": 31878, "name": "FENGYUN 1C DEB", "group": "fengyun-1c-debris", "lat": 47.87385753750855, "lon": 98.57683547450254, "alt_km": 630.5623480447566, "timestamp": "2025-12-10T18:57:00.350036+00:00", "meta": {"OBJECT_NAME": "FENGYUN 1C DEB", "OBJECT_ID": "1999-025CKD", "EPOCH": "2025-12-03T00:27:41.548032", "MEAN_MOTION": 14.85464766, "ECCENTRICITY": 0.00842743, "INCLINATION": 99.4399, "RA_OF_ASC_NODE": 258.7733, "ARG_OF_PERICENTER": 269.6043, "MEAN_ANOMALY": 89.551, "EPHEMERIS_TYPE": 0, "CLASSIFICATION_TYPE": "U", "NORAD_CAT_ID": 31878, "ELEMENT_SET_NO": 999, "REV_AT_EPOCH": 97949, "BSTAR": 0.0019397439, "MEAN_MOTION_DOT": 0.000178, "MEAN_MOTION_DDOT": 0}, "tle": {"line1": "1 31878U 99025CKD 25337.01923088  .00017800  00000+0  19397-2 0  9999", "line2": "2 31878  99.4399 258.7733 0084274 269.6043  89.5510 14.85464766979499"}}, "geometry": {"type": "Point", "coordinates": [98.57683547450254, 47.87385753750855]}}, {"type": "Feature", "properties": {"norad_id": 31879, "name": "FENGYUN 1C DEB", "group": "fengyun-1c-debris", "lat": -39.719455509803744, "lon": 34.80981169882935, "alt_km": 904.9371678199341, "timestamp": "2025-12-10T18:57:00.350046+00:00", "meta": {"OBJECT_NAME": "FENGYUN 1C DEB", "OBJECT_ID": "1999-025CKE", "EPOCH": "2025-12-10T02:57:42.885792", "MEAN_MOTION": 14.42891816, "ECCENTRICITY": 0.02099361, "INCLINATION": 99.709, "RA_OF_ASC_NODE": 222.2286, "ARG_OF_PERICENTER": 44.3131, "MEAN_ANOMALY": 317.4648, "EPHEMERIS_TYPE": 0, "CLASSIFICATION_TYPE": "U", "NORAD_CAT_ID": 31879, "ELEMENT_SET_NO": 999, "REV_AT_EPOCH": 63172, "BSTAR": 0.00045542823, "MEAN_MOTION_DOT": 1.92e-05, "MEAN_MOTION_DDOT": 0}, "tle": {"line1": "1 31879U 99025CKE 25344.12341303  .00001920  00000+0  45543-3 0  9993", "line2": "2 31879  99.7090 222.2286 0209936  44.3131 317.4648 14.42891816631729"}}, "geometry": {"type": "Point", "coordinates": [34.80981169882935, -39.719455509803744]}}]}